[{"OBJECT_NAME":"COSMOS 2588","OBJECT_ID":"2025-109A","EPOCH":"2026-03-09T19:28:59.107008","MEAN_MOTION":15.29122656,"ECCENTRICITY":0.0005019,"INCLINATION":72.9704,"RA_OF_ASC_NODE":73.5401,"ARG_OF_PERICENTER":308.678,"MEAN_ANOMALY":51.3966,"EPHEMERIS_TYPE":0,"CLASSIFICATION_TYPE":"U","NORAD_CAT_ID":64095,"ELEMENT_SET_NO":999,"REV_AT_EPOCH":4442,"BSTAR":0.00032611,"MEAN_MOTION_DOT":9.169e-5,"MEAN_MOTION_DDOT":0},{"OBJECT_NAME":"STARLINK-35972","OBJECT_ID":"2025-271X","EPOCH":"2026-03-09T13:30:39.339648","MEAN_MOTION":15.30180455,"ECCENTRICITY":0.0001345,"INCLINATION":53.1577,"RA_OF_ASC_NODE":140.7783,"ARG_OF_PERICENTER":72.4079,"MEAN_ANOMALY":287.7068,"EPHEMERIS_TYPE":0,"CLASSIFICATION_TYPE":"U","NORAD_CAT_ID":66638,"ELEMENT_SET_NO":999,"REV_AT_EPOCH":1754,"BSTAR":0.0013219,"MEAN_MOTION_DOT":0.00038974,"MEAN_MOTION_DDOT":0}]
